[{"OBJECT_NAME":"METEOR-M 2","OBJECT_ID":"2014-037A","EPOCH":"2026-03-09T23:09:30.537792","MEAN_MOTION":14.21428734,"ECCENTRICITY":0.00053128,"INCLINATION":98.5035,"RA_OF_ASC_NODE":48.2672,"ARG_OF_PERICENTER":336.7967,"MEAN_ANOMALY":23.2971,"EPHEMERIS_TYPE":0,"CLASSIFICATION_TYPE":"U","NORAD_CAT_ID":40069,"ELEMENT_SET_NO":999,"REV_AT_EPOCH":60522,"BSTAR":2.6040138e-5,"MEAN_MOTION_DOT":1.5e-7,"MEAN_MOTION_DDOT":0},{"OBJECT_NAME":"BLITS","OBJECT_ID":"2009-049G","EPOCH":"2026-03-09T19:49:25.796928","MEAN_MOTION":14.22169638,"ECCENTRICITY":0.00023892,"INCLINATION":98.7551,"RA_OF_ASC_NODE":31.8741,"ARG_OF_PERICENTER":242.2401,"MEAN_ANOMALY":117.8534,"EPHEMERIS_TYPE":0,"CLASSIFICATION_TYPE":"U","NORAD_CAT_ID":35871,"ELEMENT_SET_NO":999,"REV_AT_EPOCH":85435,"BSTAR":4.3566726e-5,"MEAN_MOTION_DOT":5.2e-7,"MEAN_MOTION_DDOT":0}]
